[{"OBJECT_NAME":"REIMEI (INDEX)","OBJECT_ID":"2005-031B","EPOCH":"2026-03-09T21:15:47.083968","MEAN_MOTION":15.09838737,"ECCENTRICITY":0.00209792,"INCLINATION":97.9988,"RA_OF_ASC_NODE":188.389,"ARG_OF_PERICENTER":89.5619,"MEAN_ANOMALY":270.8013,"EPHEMERIS_TYPE":0,"CLASSIFICATION_TYPE":"U","NORAD_CAT_ID":28810,"ELEMENT_SET_NO":999,"REV_AT_EPOCH":11600,"BSTAR":0.00050498736,"MEAN_MOTION_DOT":8.144e-5,"MEAN_MOTION_DDOT":0},{"OBJECT_NAME":"STARLINK-35083","OBJECT_ID":"2025-191M","EPOCH":"2026-03-09T14:41:27.478176","MEAN_MOTION":15.05660245,"ECCENTRICITY":0.00023,"INCLINATION":97.6017,"RA_OF_ASC_NODE":301.3881,"ARG_OF_PERICENTER":80.2183,"MEAN_ANOMALY":279.9303,"EPHEMERIS_TYPE":0,"CLASSIFICATION_TYPE":"U","NORAD_CAT_ID":65390,"ELEMENT_SET_NO":999,"REV_AT_EPOCH":3025,"BSTAR":1.1889e-5,"MEAN_MOTION_DOT":1.11e-6,"MEAN_MOTION_DDOT":0}]
